COMMENT,ORIGINATOR,NORAD_CAT_ID,OBJECT_NAME,OBJECT_TYPE,CLASSIFICATION_TYPE,INTLDES,EPOCH,EPOCH_MICROSECONDS,MEAN_MOTION,ECCENTRICITY,INCLINATION,RA_OF_ASC_NODE,ARG_OF_PERICENTER,MEAN_ANOMALY,EPHEMERIS_TYPE,ELEMENT_SET_NO,REV_AT_EPOCH,BSTAR,MEAN_MOTION_DOT,MEAN_MOTION_DDOT,FILE,TLE_LINE0,TLE_LINE1,TLE_LINE2,OBJECT_ID,OBJECT_NUMBER,SEMIMAJOR_AXIS,PERIOD,APOGEE,PERIGEE,DECAYED
GENERATED VIA SPACETRACK.ORG API,18 SPCS,33436,ASTRA 1M,PAYLOAD,U,08057A,2024-03-20 02:32:42,618048,1.00271567,0.0001592,0.0161,106.0275,296.8417,192.5957,0,999,3752,0,0.00000106,0,4234892,0 ASTRA 1M,1 33436U 08057A   24080.10604882  .00000106  00000-0  00000-0 0  9999,2 33436   0.0161 106.0275 0001592 296.8417 192.5957  1.00271567 37528,2008-057A,33436,42164.793,1436.100,35793.371,35779.945,0
GENERATED VIA SPACETRACK.ORG API,18 SPCS,42915,TDRS 13,PAYLOAD,U,17047A,2024-03-20 02:03:18,319680,1.00272336,0.0014339,3.7154,342.7922,105.401,109.2024,0,999,2416,0,-0.00000112,0,4234529,0 TDRS 13,1 42915U 17047A   24080.08562870 -.00000112  00000-0  00000+0 0  9994,2 42915   3.7154 342.7922 0014339 105.4010 109.2024  1.00272336 24168,2017-047A,42915,42164.577,1436.089,35846.902,35725.983,0
GENERATED VIA SPACETRACK.ORG API,18 SPCS,42915,TDRS 13,PAYLOAD,U,17047A,2024-03-20 02:03:18,319680,1.00272336,0.0014339,3.7154,342.7922,105.401,109.2024,0,999,2413,0,-0.00000112,0,4234892,0 TDRS 13,1 42915U 17047A   24080.08562870 -.00000112  00000-0  00000-0 0  9995,2 42915   3.7154 342.7922 0014339 105.4010 109.2024  1.00272336 24135,2017-047A,42915,42164.577,1436.089,35846.902,35725.983,0
GENERATED VIA SPACETRACK.ORG API,18 SPCS,29055,ASTRA 1KR,PAYLOAD,U,06012A,2024-03-20 00:53:42,535104,1.00271027,0.0002823,0.0414,284.7809,15.4162,270.4383,0,999,6553,0,0.00000106,0,4234512,0 ASTRA 1KR,1 29055U 06012A   24080.03729786  .00000106  00000-0  00000+0 0  9992,2 29055   0.0414 284.7809 0002823  15.4162 270.4383  1.00271027 65530,2006-012A,29055,42164.944,1436.108,35798.713,35774.906,0
GENERATED VIA SPACETRACK.ORG API,18 SPCS,29055,ASTRA 1KR,PAYLOAD,U,06012A,2024-03-20 00:53:42,535104,1.00271027,0.0002823,0.0414,284.7809,15.4162,270.4383,0,999,3750,0,0.00000106,0,4234892,0 ASTRA 1KR,1 29055U 06012A   24080.03729786  .00000106  00000-0  00000-0 0  9993,2 29055   0.0414 284.7809 0002823  15.4162 270.4383  1.00271027 37506,2006-012A,29055,42164.944,1436.108,35798.713,35774.906,0
GENERATED VIA SPACETRACK.ORG API,18 SPCS,22787,UFO 2 (USA 95),PAYLOAD,U,93056A,2024-03-20 00:28:42,492864,1.00276925,0.0004463,11.6318,7.8219,11.0986,194.9968,0,999,11044,0,0.00000119,0,4234419,0 UFO 2 (USA 95),1 22787U 93056A   24080.01993626  .00000119  00000-0  00000+0 0  9999,2 22787  11.6318   7.8219 0004463  11.0986 194.9968  1.00276925110445,1993-056A,22787,42163.291,1436.023,35803.974,35766.339,0
GENERATED VIA SPACETRACK.ORG API,18 SPCS,22787,UFO 2 (USA 95),PAYLOAD,U,93056A,2024-03-20 00:28:42,492864,1.00276925,0.0004463,11.6318,7.8219,11.0986,194.9968,0,999,11033,0,0.00000119,0,4234892,0 UFO 2 (USA 95),1 22787U 93056A   24080.01993626  .00000119  00000-0  00000-0 0  9990,2 22787  11.6318   7.8219 0004463  11.0986 194.9968  1.00276925110333,1993-056A,22787,42163.291,1436.023,35803.974,35766.339,0
GENERATED VIA SPACETRACK.ORG API,18 SPCS,44066,S5 DEB,DEBRIS,U,19009E,2024-03-20 00:11:51,61632,0.98983105,0.0004244,4.4777,80.5685,203.3701,156.8681,0,999,1825,0,0.00000009,0,4234892,0 S5 DEB,1 44066U 19009E   24080.00822988  .00000009  00000-0  00000-0 0  9999,2 44066   4.4777  80.5685 0004244 203.3701 156.8681  0.98983105 18257,2019-009E,44066,42529.910,1454.794,36169.824,36133.725,0
GENERATED VIA SPACETRACK.ORG API,18 SPCS,41384,IRNSS 1F,PAYLOAD,U,16015A,2024-03-19 22:38:11,818176,1.00273388,0.0019439,3.3605,121.2172,191.2902,237.4492,0,999,2945,0,0.00000146,0,4234892,0 IRNSS 1F,1 41384U 16015A   24079.94319234  .00000146  00000-0  00000-0 0  9991,2 41384   3.3605 121.2172 0019439 191.2902 237.4492  1.00273388 29458,2016-015A,41384,42164.283,1436.074,35868.111,35704.184,0
GENERATED VIA SPACETRACK.ORG API,18 SPCS,44307,YAMAL 601,PAYLOAD,U,19031A,2024-03-19 19:40:42,626784,1.00272001,0.0002392,0.0102,152.9801,198.5105,170.5001,0,999,1769,0,0.00000107,0,4234029,0 YAMAL 601,1 44307U 19031A   24079.81993781  .00000107  00000-0  00000+0 0  9997,2 44307   0.0102 152.9801 0002392 198.5105 170.5001  1.00272001 17694,2019-031A,44307,42164.671,1436.094,35796.622,35776.451,0
GENERATED VIA SPACETRACK.ORG API,18 SPCS,41384,IRNSS 1F,PAYLOAD,U,16015A,2024-03-19 14:45:39,792096,1.00273211,0.0019448,3.3598,121.2308,191.2783,118.9887,0,999,2944,0,0.00000146,0,4233145,0 IRNSS 1F,1 41384U 16015A   24079.61504389  .00000146  00000-0  00000+0 0  9991,2 41384   3.3598 121.2308 0019448 191.2783 118.9887  1.00273211 29442,2016-015A,41384,42164.332,1436.076,35868.198,35704.196,0
GENERATED VIA SPACETRACK.ORG API,18 SPCS,28945,SPAINSAT,PAYLOAD,U,06007A,2024-03-19 14:09:23,595552,1.00272583,0.0002961,0.0311,232.6546,108.159,19.1486,0,999,6599,0,-0.00000229,0,4234709,0 SPAINSAT,1 28945U 06007A   24079.58985643 -.00000229  00000-0  00000+0 0  9994,2 28945   0.0311 232.6546 0002961 108.1590  19.1486  1.00272583 65991,2006-007A,28945,42164.508,1436.085,35798.858,35773.888,0
GENERATED VIA SPACETRACK.ORG API,18 SPCS,28945,SPAINSAT,PAYLOAD,U,06007A,2024-03-19 14:09:23,595552,1.00272583,0.0002961,0.0311,232.6546,108.159,19.1486,0,999,6600,0,-0.00000229,0,4234892,0 SPAINSAT,1 28945U 06007A   24079.58985643 -.00000229  00000-0  00000-0 0  9995,2 28945   0.0311 232.6546 0002961 108.1590  19.1486  1.00272583 66004,2006-007A,28945,42164.508,1436.085,35798.858,35773.888,0
GENERATED VIA SPACETRACK.ORG API,18 SPCS,43162,SBIRS GEO 3 (USA 282),PAYLOAD,U,18009A,2024-03-19 13:50:39,58080,1.0027284,0.0001959,2.4695,332.4184,18.5831,234.8332,0,999,2262,0,0.00000115,0,4232828,0 SBIRS GEO 3 (USA 282),1 43162U 18009A   24079.57684095  .00000115  00000-0  00000+0 0  9996,2 43162   2.4695 332.4184 0001959  18.5831 234.8332  1.00272840 22620,2018-009A,43162,42164.436,1436.082,35794.561,35778.041,0
GENERATED VIA SPACETRACK.ORG API,18 SPCS,43453,TITAN 3C TRANSTAGE DEB,DEBRIS,U,69013L,2024-03-19 12:01:03,204192,1.07402604,0.0740401,1.7173,231.95,213.1854,141.2375,0,999,2323,0,-0.00000185,0,4233162,0 TITAN 3C TRANSTAGE DEB,1 43453U 69013L   24079.50073153 -.00000185  00000-0  00000+0 0  9998,2 43453   1.7173 231.9500 0740401 213.1854 141.2375  1.07402604 23237,1969-013L,43453,40277.141,1340.750,36881.129,30916.882,0
GENERATED VIA SPACETRACK.ORG API,18 SPCS,43453,TITAN 3C TRANSTAGE DEB,DEBRIS,U,69013L,2024-03-19 12:00:47,331648,1.07403103,0.0744206,1.7175,231.9024,213.2047,141.1892,0,999,2323,0,-0.00000185,0,4234380,0 TITAN 3C TRANSTAGE DEB,1 43453U 69013L   24079.50054782 -.00000185  00000-0  00000+0 0  9995,2 43453   1.7175 231.9024 0744206 213.2047 141.1892  1.07403103 23230,1969-013L,43453,40277.016,1340.743,36896.321,30901.441,0
GENERATED VIA SPACETRACK.ORG API,18 SPCS,43453,TITAN 3C TRANSTAGE DEB,DEBRIS,U,69013L,2024-03-19 12:00:47,331648,1.07403103,0.0744206,1.7175,231.9024,213.2047,141.1892,0,999,2323,0,-0.00000185,0,4234892,0 TITAN 3C TRANSTAGE DEB,1 43453U 69013L   24079.50054782 -.00000185  00000-0  00000-0 0  9996,2 43453   1.7175 231.9024 0744206 213.2047 141.1892  1.07403103 23230,1969-013L,43453,40277.016,1340.743,36896.321,30901.441,0
GENERATED VIA SPACETRACK.ORG API,18 SPCS,38697,TITAN 3C TRANSTAGE DEB *,DEBRIS,U,68081X,2024-03-19 05:39:14,654592,1.0147121,0.0502311,3.7779,34.5616,8.8436,352.127,0,999,6653,0,-0.00000269,0,4234802,0 TITAN 3C TRANSTAGE DEB *,1 38697U 68081X   24079.23558628 -.00000269  00000-0  00000+0 0  9994,2 38697   3.7779  34.5616 0502311   8.8436 352.1270  1.01471210 66531,1968-081X,38697,41831.806,1419.122,37554.929,33352.413,0
GENERATED VIA SPACETRACK.ORG API,18 SPCS,38697,TITAN 3C TRANSTAGE DEB *,DEBRIS,U,68081X,2024-03-19 05:39:14,654592,1.0147121,0.0502311,3.7779,34.5616,8.8436,352.127,0,999,6654,0,-0.0000027,0,4234892,0 TITAN 3C TRANSTAGE DEB *,1 38697U 68081X   24079.23558628 -.00000270  00000-0  00000-0 0  9997,2 38697   3.7779  34.5616 0502311   8.8436 352.1270  1.01471210 66542,1968-081X,38697,41831.806,1419.122,37554.929,33352.413,0
GENERATED VIA SPACETRACK.ORG API,18 SPCS,29055,ASTRA 1KR,PAYLOAD,U,06012A,2024-03-19 00:56:59,1792,1.00270504,0.0002897,0.0433,284.6276,14.452,271.3945,0,999,3749,0,0.00000106,0,4233772,0 ASTRA 1KR,1 29055U 06012A   24079.03957178  .00000106  00000-0  00000-0 0  9999,2 29055   0.0433 284.6276 0002897  14.4520 271.3945  1.00270504 37493,2006-012A,29055,42165.091,1436.115,35799.171,35774.741,0
GENERATED VIA SPACETRACK.ORG API,18 SPCS,33436,ASTRA 1M,PAYLOAD,U,08057A,2024-03-19 00:56:59,1792,1.00271006,0.0001515,0.0146,119.2102,281.129,170.1443,0,999,3751,0,0.00000106,0,4233772,0 ASTRA 1M,1 33436U 08057A   24079.03957178  .00000106  00000-0  00000-0 0  9998,2 33436   0.0146 119.2102 0001515 281.1290 170.1443  1.00271006 37516,2008-057A,33436,42164.950,1436.108,35793.203,35780.427,0
GENERATED VIA SPACETRACK.ORG API,18 SPCS,44457,COSMOS 2539,PAYLOAD,U,19048A,2024-03-19 00:54:58,701024,1.00277708,0.0000956,0.016,125.6033,193.7477,243.4363,0,999,1700,0,0.00000068,0,4232474,0 COSMOS 2539,1 44457U 19048A   24079.03817941  .00000068  00000-0  00000+0 0  9994,2 44457   0.0160 125.6033 0000956 193.7477 243.4363  1.00277708 17006,2019-048A,44457,42163.072,1436.012,35788.967,35780.906,0
GENERATED VIA SPACETRACK.ORG API,18 SPCS,44457,COSMOS 2539,PAYLOAD,U,19048A,2024-03-19 00:54:58,701024,1.00277708,0.0000956,0.016,125.6033,193.7477,243.4363,0,999,1700,0,0.00000068,0,4233772,0 COSMOS 2539,1 44457U 19048A   24079.03817941  .00000068  00000-0  00000-0 0  9995,2 44457   0.0160 125.6033 0000956 193.7477 243.4363  1.00277708 17006,2019-048A,44457,42163.072,1436.012,35788.967,35780.906,0
